<?xml version="1.0" encoding="utf-8" ?>
<kml xmlns="http://www.opengis.net/kml/2.2">
<Document id="root_doc">
<Folder><name>cloud_2020</name>
  <Placemark>
	<Style><LineStyle><color>ff0000ff</color></LineStyle><PolyStyle><fill>0</fill></PolyStyle></Style>
      <MultiGeometry><Polygon><outerBoundaryIs><LinearRing><coordinates>85.5132723069739,27.9631618272788 85.5131179074975,27.9628790959702 85.5129099023531,27.9626582435381 85.5128601486761,27.9624391013583 85.5128108232787,27.9621887345842 85.5127835764527,27.9616106997735 85.5126812877731,27.9613753750655 85.5126323912865,27.9610937836448 85.5126343178669,27.9609532730344 85.5126371006806,27.9607503132585 85.5125005031814,27.9604521591316 85.5124149427808,27.9602794734958 85.5123654050635,27.960044718854 85.5121222407132,27.9598234852131 85.5118074605857,27.9596951642487 85.5116695814618,27.9594906831137 85.5115314886383,27.9593018141409 85.511215853752,27.9592359410371 85.5109175878462,27.9591858697842 85.5105850139135,27.9590729681395 85.5102333571468,27.9590691612959 85.5100043514349,27.9590979109175 85.5097041563759,27.9591883475349 85.5094395555893,27.9592479398734 85.50924314063,27.9594644163751 85.509081890732,27.9596812735951 85.5087638958151,27.9597871298096 85.5083586295392,27.9598451954581 85.5080417070859,27.9598729886529 85.5078658776015,27.9598710820442 85.5075483106431,27.9599457108649 85.5071771350189,27.9600822156759 85.5068782244474,27.9600789724077 85.5066676586083,27.9600454581517 85.506261530648,27.9601659665282 85.5060852708339,27.9601952821176 85.5056802170331,27.9602377275142 85.5052745176226,27.9603270084232 85.5050971816244,27.9604343839158 85.5049543658509,27.9605889779746 85.5047588004742,27.9607429986526 85.5047544965395,27.9610552433371 85.5047519141456,27.9612425901407 85.5047825612927,27.961570829192 85.5047979925168,27.9617271425957 85.504865097571,27.9619620903733 85.5049684453835,27.9621193590756 85.5050550708377,27.96221398773 85.5054382466859,27.9624835982038 85.5057712550675,27.9625652879602 85.506246006049,27.962570442968 85.5065983183639,27.9625274237062 85.5069830035816,27.9626877443389 85.5070696312859,27.9627823718026 85.5072774094754,27.96301884486 85.5073288707583,27.9631130906367 85.5074315787497,27.9633171943868 85.5073944781891,27.9634573231108 85.5074605156519,27.9637703310591 85.5075462853167,27.9639274072465 85.5077890191478,27.9641798733412 85.5081923693723,27.9642623203057 85.5086868585826,27.9641115352954 85.5089167336962,27.964020339283 85.509286848223,27.9639618915878 85.509673258913,27.9639973069223 85.5100423007329,27.964016918497 85.5104102706755,27.9641145904233 85.5106195594953,27.9642417728919 85.5108640162153,27.9643693356973 85.5110745919969,27.9644028438832 85.5116366280165,27.9644557688513 85.511970718743,27.9644593826049 85.5124810750478,27.9644336722089 85.5126916515742,27.9644671779429 85.5130443964112,27.9643929177508 85.5132586111472,27.9641610137462 85.5134018484191,27.9639751862898 85.5134582369056,27.9637103473293 85.5134421510946,27.9636008713179 85.5132723069739,27.9631618272788</coordinates></LinearRing></outerBoundaryIs></Polygon></MultiGeometry>
  </Placemark>
  <Placemark>
	<Style><LineStyle><color>ff0000ff</color></LineStyle><PolyStyle><fill>0</fill></PolyStyle></Style>
      <MultiGeometry><Polygon><outerBoundaryIs><LinearRing><coordinates>85.4985205940824,27.9654843461455 85.4984646005676,27.9657179531097 85.4983232815182,27.9657632542904 85.4982878976954,27.9657784826063 85.4982175623854,27.965777714857 85.4979894050764,27.965743995074 85.4977964155529,27.9657106589129 85.4975152908513,27.9656919745305 85.4970563811226,27.9658118783096 85.4967385739581,27.9659020933118 85.4965102005418,27.9658839832475 85.496228426336,27.9659121327131 85.4958895701144,27.9662519480652 85.4958333539739,27.9665011658545 85.4956347333283,27.9668737426957 85.49552446465,27.9672160563743 85.4955010327466,27.9676373922126 85.4955642219463,27.9681533624305 85.4956456456376,27.9686226884411 85.4957641877082,27.968951889595 85.4958123929509,27.9692803215929 85.4959075048514,27.9700308584279 85.4959696140807,27.9706248891619 85.4959667989197,27.9708278470986 85.4958506791585,27.9715916886976 85.4958081458134,27.9721221170712 85.4957999153973,27.9727153785415 85.4956889905426,27.9731045282856 85.4957007269991,27.9735262484078 85.4958535777168,27.9739182826608 85.4961154056207,27.9740616761183 85.4965734856387,27.974004225602 85.4969818398885,27.9737276270074 85.4974047479687,27.9736697893431 85.4979166626148,27.9735348497539 85.4983391371113,27.9735082334839 85.4985838148682,27.9736202060407 85.4989683095395,27.9737961620723 85.4993886240918,27.9739256642662 85.4995438655931,27.9741459611049 85.4997503511284,27.9744761183694 85.4999943845832,27.9746349250486 85.5004500902658,27.9747491955232 85.5006604661387,27.9747983324357 85.501046479559,27.9748649976935 85.50139818606,27.9748688299905 85.501676314796,27.9751060778848 85.5019019042665,27.9753271384918 85.5022340857753,27.9754712868225 85.5026913070454,27.9754762647854 85.5028354402092,27.9752280011578 85.5027327308565,27.9750238942147 85.5028599247376,27.9747286025293 85.5030909050318,27.9745593564978 85.5031812024989,27.9743885792265 85.5032189595018,27.974201615631 85.5034853240158,27.9740171393686 85.5037336715327,27.9738636956592 85.5038231055853,27.9737553666813 85.5037577204058,27.9733955210004 85.5036365638981,27.9732536721921 85.5033093438413,27.9727504468747 85.5034007168116,27.9725016083542 85.5032658560486,27.9720785483714 85.5031462102905,27.971827413801 85.5031668124719,27.9716090343736 85.5029946286459,27.9713417134425 85.5027321506442,27.9712451695191 85.5025243678216,27.9710086896413 85.5028977423111,27.9707160772876 85.5030920357423,27.9706557334731 85.5034267906908,27.9706125321003 85.5038320994251,27.970554482732 85.5043242542569,27.9705754491807 85.5049043326752,27.9705973694912 85.5051691787553,27.9705221749251 85.5054709152151,27.9703224641849 85.5057194665175,27.9701534041535 85.5058631549863,27.9699363610672 85.5058149189256,27.9696079314302 85.5058899894125,27.9692652264878 85.506035827143,27.9688920608871 85.5061612836423,27.9687216630786 85.5064119804091,27.9683964792894 85.5063967613992,27.968224553857 85.5063834776664,27.9679121183528 85.5063871330855,27.9676467104387 85.5063755695421,27.9672093770616 85.5064682203089,27.9668668624603 85.506419123279,27.9666008818088 85.5061416497389,27.9663168069712 85.5058277192474,27.9661260230623 85.5057430260442,27.9658908847314 85.5054816339781,27.965716285254 85.5050261748758,27.965586420348 85.5045902381106,27.9653162350949 85.5045932517435,27.9650976639691 85.5046498775339,27.9648172172913 85.5046359530378,27.9645516183553 85.5044993736519,27.9642534571073 85.5042572934987,27.9639541488288 85.5039600953673,27.9638260010333 85.5035042153592,27.9637273558703 85.5032606310951,27.9635373314939 85.5031216867066,27.9634109034214 85.502718990739,27.9632816052065 85.5025948288826,27.963358326761 85.5024185630768,27.9633876373991 85.5017666807708,27.9634742276731 85.5014697028271,27.9633304624473 85.5011722942264,27.9632179210147 85.5006285026585,27.9631183087437 85.5003656148382,27.9630529854436 85.5000499771876,27.9629870865923 85.4997851467059,27.9630622719564 85.4996243046493,27.963247892654 85.4994443666867,27.9635426067006 85.4993538573291,27.9637289940898 85.4992101650022,27.9639460303782 85.4989974341269,27.9640686260625 85.4987836223478,27.9642692823165 85.498729142826,27.9643936041928 85.4987263335659,27.9645965625708 85.4986525412551,27.9648455899853 85.4984923429355,27.9649843725935 85.4984539334101,27.9652181714795 85.4985205940824,27.9654843461455</coordinates></LinearRing></outerBoundaryIs></Polygon></MultiGeometry>
  </Placemark>
  <Placemark>
	<Style><LineStyle><color>ff0000ff</color></LineStyle><PolyStyle><fill>0</fill></PolyStyle></Style>
      <MultiGeometry><Polygon><outerBoundaryIs><LinearRing><coordinates>85.4961836682602,27.9767481177398 85.495949640368,27.9771359213996 85.4959316214884,27.9771669533636 85.4958751819173,27.9774317827047 85.4958884351241,27.9777442176749 85.4959012551081,27.9780878768968 85.4958239793964,27.9785866958 85.4957977275417,27.97921098864 85.4957519391308,27.9799755982039 85.4957471724305,27.9803190649765 85.4957960309733,27.9806006602752 85.4958435897646,27.9809759283049 85.49580408384,27.9812877861027 85.4957639276056,27.9816464802351 85.4958492594925,27.9818347874605 85.496166031557,27.9818226371896 85.496378584666,27.9817156597984 85.4965045048975,27.9815140480173 85.4967539620538,27.9812825574768 85.4969144041293,27.9811281661029 85.4970735468337,27.981067447322 85.4974780317162,27.9810718669624 85.4976512978959,27.9812611338228 85.4978417182832,27.9814818168489 85.4979813274579,27.9815614141797 85.4982271042121,27.9815953272369 85.4985462546358,27.981411437876 85.4986904056462,27.9811631794756 85.4988499799696,27.9810712343103 85.4991315771768,27.981058693187 85.4992727000201,27.9810290041842 85.4995377914535,27.9809382095645 85.4997301602098,27.9810183807429 85.4999049429359,27.9810983598412 85.5000265347867,27.9812089876235 85.5004659774435,27.9812293942657 85.5006789573762,27.9810911856894 85.5008040052277,27.9809520182551 85.5009835389775,27.9806885284532 85.5013560886043,27.9804583707983 85.5014466099711,27.9802719829377 85.5015729508487,27.9800391417068 85.5016984279297,27.9798687490087 85.5018071816614,27.9796357159251 85.5019506755008,27.9794342901788 85.5020783087401,27.9791077753356 85.5020828393971,27.9787799196785 85.5021399119865,27.9784682507509 85.502374352748,27.9780492115227 85.5024296985384,27.9778624398286 85.5024848284474,27.9776912802799 85.5025963816452,27.9772552879943 85.5024928083409,27.977113629599 85.5023888039353,27.977003195495 85.5022850154374,27.9768771491385 85.5021115317888,27.9767035001383 85.501918305617,27.9766857811846 85.5014091858319,27.9766177769603 85.5008101956367,27.9766893220471 85.5004556758489,27.9768884461951 85.5001892991692,27.9770729160404 85.4999074963165,27.9771010719068 85.4996634576216,27.9769422649176 85.4992600684051,27.9768597915065 85.4989624097306,27.976762856313 85.4983644989448,27.9767563298836 85.4980835618346,27.976722033423 85.4976968950204,27.9767021961221 85.4974315963617,27.9768085997351 85.4970777197391,27.976960878484 85.4968317374028,27.9769425759139 85.4964991262503,27.9768296389439 85.4961836682602,27.9767481177398</coordinates></LinearRing></outerBoundaryIs></Polygon></MultiGeometry>
  </Placemark>
  <Placemark>
	<Style><LineStyle><color>ff0000ff</color></LineStyle><PolyStyle><fill>0</fill></PolyStyle></Style>
      <MultiGeometry><Polygon><outerBoundaryIs><LinearRing><coordinates>85.5713577455164,27.9926724000421 85.571342112708,27.9925238973259 85.5713008174855,27.9923204762695 85.5712676990478,27.9921639844665 85.5711899913313,27.9920538736103 85.5710854889575,27.9919747137904 85.5709710597608,27.9919813319395 85.5708657338105,27.9919646224628 85.5707073330007,27.9919707833473 85.5706279781015,27.9919855731887 85.5705144759009,27.9919219341519 85.5703483109703,27.9918499400826 85.5700919365083,27.9919487701084 85.5699063283949,27.9920171061717 85.5697747227003,27.9919923151452 85.5696264560255,27.9918970842455 85.5695840304856,27.9917795321782 85.5696477549432,27.9916162401016 85.5695970505244,27.9914595650077 85.5695372427689,27.9913262173336 85.5693631098319,27.9911916801661 85.5692072874622,27.9910026816579 85.5691390985771,27.9908380170859 85.5690876735193,27.9907359859844 85.5690012779305,27.9906179761631 85.5687641437139,27.9905920859218 85.5686055386422,27.9906138570686 85.568331267835,27.9907359196964 85.5682323650926,27.9908988448419 85.5682125070423,27.9910704004 85.5681406055762,27.9911867623506 85.5679368932507,27.9912939441223 85.5677604921096,27.9913311436666 85.5676305391352,27.9911814497928 85.5676676769911,27.9910334964845 85.5676519461894,27.9908927998133 85.5674256704166,27.9907108728139 85.5671360809873,27.9906610111134 85.5669331947882,27.9907057409989 85.5667731435522,27.9908367982139 85.5665343570302,27.990935804918 85.5664277934295,27.9910127676863 85.5661199954238,27.9910095582435 85.5659011730365,27.9909292023942 85.5656103436728,27.990973013039 85.5654860875935,27.9910575978637 85.5653784894775,27.9912126227345 85.5654210135648,27.991322369637 85.5654455357548,27.9914631582028 85.5652761704766,27.9916331532698 85.5651422919831,27.9917800963213 85.5652095447669,27.9920150192909 85.5652611734157,27.9921014391253 85.5651261569872,27.9923342513501 85.5650621151463,27.9925209599223 85.5651479907893,27.9926780035468 85.5652160711528,27.9928504761663 85.5654332428363,27.9930557338971 85.5656335500369,27.9932061637647 85.5661335912778,27.9933050679083 85.566651428935,27.9933885410359 85.5668889816441,27.99338320993 85.5675656362821,27.9934292980554 85.5684289348352,27.993328986172 85.5688789974545,27.993216560817 85.5691969368485,27.9931183738611 85.5696214392581,27.9929432209993 85.570123441276,27.9928937908574 85.5706334133364,27.9929069007772 85.5709766008891,27.9928948533109 85.5711711072785,27.9928188009196 85.5712243884173,27.9927803176883 85.5713577455164,27.9926724000421</coordinates></LinearRing></outerBoundaryIs></Polygon></MultiGeometry>
  </Placemark>
  <Placemark>
	<Style><LineStyle><color>ff0000ff</color></LineStyle><PolyStyle><fill>0</fill></PolyStyle></Style>
      <MultiGeometry><Polygon><outerBoundaryIs><LinearRing><coordinates>85.5709809446079,27.9912319258444 85.5709223708568,27.9910049029426 85.5707928256506,27.9908239866489 85.5707323988278,27.9907374773237 85.570734252478,27.9905969636766 85.5706217815067,27.9904552616311 85.5703487492855,27.9904836526326 85.5702320552958,27.9906620090932 85.5701777446912,27.9907785550944 85.5701840664136,27.9909659980212 85.5702347714942,27.9911226729323 85.570383346731,27.991194484231 85.5705677172038,27.9912198232035 85.5706898070164,27.9912991662194 85.5708208972409,27.9913629879152 85.5708910454961,27.9913793317934 85.5709796060571,27.9913334079248 85.5709809446079,27.9912319258444</coordinates></LinearRing></outerBoundaryIs></Polygon></MultiGeometry>
  </Placemark>
  <Placemark>
	<Style><LineStyle><color>ff0000ff</color></LineStyle><PolyStyle><fill>0</fill></PolyStyle></Style>
      <MultiGeometry><Polygon><outerBoundaryIs><LinearRing><coordinates>85.5753212505447,27.9871965448465 85.5750704910852,27.9872457520421 85.5748496154789,27.9873215370663 85.5745581824562,27.9874122051396 85.5744853659922,27.9875988277811 85.5746501926046,27.9877722990491 85.5746484469383,27.987905006664 85.5747171561007,27.9880306371608 85.5747328958761,27.9881713334039 85.5749422072915,27.988306228442 85.5750204297212,27.9883773056221 85.5750365805664,27.9884867765165 85.5749030269715,27.9886103107812 85.574787163905,27.9887262208685 85.5747502419894,27.9888585638777 85.5745372326411,27.9890046963623 85.5744397786237,27.989058337822 85.5743073535222,27.9890960018417 85.5741939546901,27.9890245595216 85.573903852224,27.9890137437513 85.573764071488,27.9889420274734 85.573650570429,27.9888783910485 85.573492379697,27.9888689426668 85.5733154701828,27.9889451811919 85.5732247538651,27.9891550394943 85.5731348595943,27.9893024471303 85.5728793161333,27.9893388321251 85.5727120222257,27.9893527105187 85.5725264201249,27.9894210503702 85.5724634213493,27.9895296997936 85.5725411287035,27.98963980995 85.5725392774707,27.9897803237276 85.5724838384284,27.9899827402887 85.5726493850534,27.9901015696678 85.5728683141326,27.9901741085859 85.5729467420763,27.9902295742835 85.5730331417901,27.9903475817788 85.5731553353631,27.9904191163229 85.5732062501781,27.9905601776547 85.5732756787562,27.9906311645689 85.5734850956456,27.9907582555645 85.5735981874195,27.9908531174715 85.5737375593834,27.9909560592804 85.573877650904,27.991004356688 85.5739821545149,27.9910835144368 85.5740603782095,27.9911545921861 85.5741813932534,27.9912030913498 85.5742225662896,27.9912945868833 85.5743064539681,27.9914099324412 85.5744008276064,27.9917245112355 85.5747573502399,27.9919552023513 85.5752292184314,27.99202860407 85.5755123393463,27.9921124917485 85.5760785811761,27.9921334636681 85.5763302442115,27.9920600619495 85.5764770476489,27.9916196516374 85.5764246178498,27.9913679886019 85.5763092722919,27.9910219519282 85.5764246178498,27.990644457375 85.5764770476489,27.9904032802994 85.5766448230059,27.990204047063 85.576749682604,27.98981606655 85.5767496826046,27.9898061854854 85.5768492376522,27.9897625396548 85.5769924049576,27.9895766438092 85.5774000109199,27.989346639481 85.5776311179446,27.9891616526903 85.5778461728777,27.9888593884745 85.5779372899216,27.9886183014125 85.5780089743748,27.9885175465266 85.5780184855712,27.9884629930798 85.5778085550469,27.9883749406191 85.5776339035539,27.9882794453693 85.5775912654899,27.9881775081251 85.5775228602823,27.9880284599218 85.5774273557975,27.987933783141 85.5772522953609,27.9878695127959 85.5770680310829,27.9878363765909 85.5769017650423,27.9877721968105 85.5768327458605,27.9876699863275 85.5768160806283,27.9875995472589 85.5767996204757,27.9875134955124 85.5767389853871,27.9874426013542 85.5766150498416,27.9874173378848 85.5765923932068,27.9872889502356 85.5766343370461,27.9871316608384 85.5767391966442,27.9869429135618 85.5767182247245,27.9867961101245 85.57641413189,27.9866807645665 85.5761624688546,27.9867017364862 85.5758793479397,27.9868904837628 85.5757010866229,27.986932427602 85.5754703955071,27.9869953433609 85.5753445639893,27.9871421467982 85.5753212505447,27.9871965448465</coordinates></LinearRing></outerBoundaryIs></Polygon></MultiGeometry>
  </Placemark>
  <Placemark>
	<Style><LineStyle><color>ff0000ff</color></LineStyle><PolyStyle><fill>0</fill></PolyStyle></Style>
      <MultiGeometry><Polygon><outerBoundaryIs><LinearRing><coordinates>85.5820565146431,27.9823368362202 85.581793319985,27.9822872778997 85.5814937252566,27.9823310326102 85.5810712245266,27.9823579038258 85.5808978059614,27.9821687365958 85.5807941230979,27.9820271332732 85.5807982118116,27.9817148789556 85.5807321568627,27.981386285962 85.580664875582,27.9811513692367 85.5806143636847,27.9809790848521 85.5805470828738,27.9807441680743 85.5804438107081,27.9805713390929 85.5802871648438,27.9804448035746 85.5799200910582,27.9802692508534 85.5798162066467,27.9801432595825 85.5796945311185,27.9800326993385 85.5795385007174,27.9798593248822 85.5792957650065,27.9795913657053 85.5792309434714,27.9791690958389 85.579234422291,27.9789036797397 85.5790436303877,27.9786987160214 85.578619096379,27.9788817073011 85.5784765610106,27.9790207676238 85.5781579542196,27.9791736225354 85.5777867914509,27.9793103184165 85.5775029464523,27.9794947608427 85.5774266575955,27.9799468014957 85.5773861563994,27.9803523677954 85.577645656191,27.9806829628744 85.5779225396242,27.9810293520535 85.5779540263824,27.9813107443119 85.5780194583076,27.9816861764247 85.577962805185,27.9819822721355 85.5778360080637,27.9822620276578 85.5780615682174,27.9824985821687 85.578604927648,27.9826447323797 85.5790795772705,27.9826652520525 85.57944727144,27.982793969093 85.5796055564733,27.9827956039705 85.5800245816265,27.9830341533781 85.5801458516519,27.9831759388366 85.580250557307,27.9832394790894 85.5806540429921,27.9833217180051 85.5809702059326,27.9833562102846 85.5810573249306,27.9834195684723 85.5810708240598,27.98373200421 85.5809452591653,27.9839180864764 85.5807288940765,27.9843218390437 85.5808311477354,27.984572731418 85.5810051831235,27.9847150606726 85.581182080641,27.9846388117534 85.5814696120944,27.9841733332626 85.5818278991833,27.9836773540869 85.5820076542976,27.9833825259289 85.5820843357674,27.9828992568952 85.5820861740917,27.9827587423933 85.5820565146431,27.9823368362202</coordinates></LinearRing></outerBoundaryIs></Polygon></MultiGeometry>
  </Placemark>
  <Placemark>
	<Style><LineStyle><color>ff0000ff</color></LineStyle><PolyStyle><fill>0</fill></PolyStyle></Style>
      <MultiGeometry><Polygon><outerBoundaryIs><LinearRing><coordinates>85.5824976567529,27.9788670830511 85.5824476532321,27.9786557673807 85.5823351781599,27.9785140745717 85.5823458090851,27.9783736505983 85.5822504104442,27.9782711708297 85.5820834406888,27.9782616422213 85.5818894784696,27.9782986796223 85.5817389717542,27.9783752019365 85.5814905130402,27.9785444029127 85.5811818288327,27.9786114857429 85.5810383773166,27.9788208061218 85.5810889912335,27.9789852840286 85.5814660820249,27.9790672479029 85.5816775302382,27.9790381988799 85.5819326385568,27.9790330219369 85.5821256831013,27.9790662418176 85.5822751695549,27.9790677827746 85.5824247581088,27.9790615172026 85.5824776201215,27.9790542546067 85.5825130996513,27.9790311980084 85.5824976567529,27.9788670830511</coordinates></LinearRing></outerBoundaryIs></Polygon></MultiGeometry>
  </Placemark>
  <Placemark>
	<Style><LineStyle><color>ff0000ff</color></LineStyle><PolyStyle><fill>0</fill></PolyStyle></Style>
      <MultiGeometry><Polygon><outerBoundaryIs><LinearRing><coordinates>85.5825086495516,27.9813889923144 85.5827050670486,27.9811646014889 85.582811507592,27.9810954315799 85.5828913634274,27.9810416024988 85.5830598683383,27.9809340347831 85.5830955524816,27.980895365325 85.5832119084164,27.9807404156368 85.5834258081289,27.9805240112001 85.5835420611674,27.9803768675613 85.5836052473365,27.9802525995787 85.5836687393658,27.9801049124505 85.5837406166223,27.9799885413129 85.5836700654067,27.980003429644 85.5835816213387,27.9800415559296 85.5834130163229,27.980156930737 85.5833069852113,27.9801948756954 85.5830768256972,27.9803096160124 85.5829796898097,27.9803398449326 85.5828461553876,27.9804633877569 85.5827299013332,27.9806105307675 85.5825789835438,27.9807182793418 85.5825683525485,27.9808587032895 85.5825309327238,27.9810300808069 85.5825119164893,27.9811391886524 85.5824929002114,27.9812482964922 85.5825086495516,27.9813889923144</coordinates></LinearRing></outerBoundaryIs></Polygon></MultiGeometry>
  </Placemark>
  <Placemark>
	<Style><LineStyle><color>ff0000ff</color></LineStyle><PolyStyle><fill>0</fill></PolyStyle></Style>
      <MultiGeometry><Polygon><outerBoundaryIs><LinearRing><coordinates>85.5980078277979,27.9263367839974 85.5979215222532,27.9262583497321 85.5978604015432,27.9262264974109 85.597746949328,27.9261628821866 85.597721186618,27.9261157748281 85.5976964315668,27.9259906026831 85.5976182367634,27.925919538873 85.5975221615988,27.9258717154381 85.5973019308946,27.9259085099205 85.5971957564326,27.9259620809376 85.5971162515256,27.9259925010484 85.5970189667895,27.9260383549814 85.5968864248106,27.9260916571211 85.5966579085939,27.9260893286233 85.5965441547289,27.9260491318608 85.5963951437855,27.9260163831597 85.5962363351795,27.9260616094429 85.596128848678,27.926216663759 85.5960486371296,27.9263017285419 85.5960024721223,27.9264730229001 85.596000958809,27.9265901199798 85.5959120586398,27.9266672885846 85.5958049746592,27.9267911167115 85.5957154687276,27.9269151240002 85.5956795048366,27.9269772172493 85.595642329915,27.9271329881286 85.5956148523208,27.9272185903973 85.5955515115019,27.9273584793932 85.5955761633801,27.9274914582905 85.5957152768042,27.9276099894752 85.5959167222226,27.9276666960987 85.5959949170731,27.927737760863 85.5960732129137,27.9278010191152 85.5962127307973,27.9278883239423 85.5962816323997,27.9279983313114 85.5962451640551,27.9280994570528 85.5961479779352,27.9281375038038 85.595882988759,27.9282362995543 85.5957580218479,27.928383367724 85.5957834814478,27.9284538948306 85.5958971365764,27.928501898759 85.5961338417515,27.9285511571298 85.5963089212783,27.9286075944237 85.5963608500363,27.9286705837473 85.5965267371496,27.9287581570672 85.596613621621,27.9288371175647 85.596779710884,27.9289090776508 85.5969648914422,27.9288641195654 85.5970013594151,27.9287629936291 85.5969779154774,27.9285363372617 85.5970055940383,27.9284351217636 85.597112779216,27.9283034862669 85.5971750097507,27.9282494677322 85.5974214114647,27.9282285551587 85.5975360749945,27.9281984930023 85.5976512423445,27.9281293983697 85.5977576203021,27.9280602141345 85.5978632928052,27.9280456751472 85.597986846031,27.9280078956196 85.5980928206908,27.9279699370213 85.598251530718,27.9279325151602 85.5983581095636,27.9278477174815 85.5984300349276,27.9277235294971 85.5984383389006,27.927671628344 85.598466105372,27.9276657827516 85.5986548526486,27.9275818950732 85.5987597122467,27.9275504371937 85.5989484595233,27.9275189793143 85.5990533191214,27.9274455775956 85.5991686646794,27.9274455775956 85.5992630383176,27.9272882881985 85.5991686646794,27.9271624566807 85.5991057489205,27.9269632234443 85.5988645718448,27.9266591306098 85.5987177684075,27.9265647569715 85.598633880729,27.9264494114136 85.5985080492113,27.9262921220164 85.5983297878945,27.9262711500968 85.5980466669796,27.9263445518155 85.5980078277979,27.9263367839974</coordinates></LinearRing></outerBoundaryIs></Polygon></MultiGeometry>
  </Placemark>
  <Placemark>
	<Style><LineStyle><color>ff0000ff</color></LineStyle><PolyStyle><fill>0</fill></PolyStyle></Style>
      <MultiGeometry><Polygon><outerBoundaryIs><LinearRing><coordinates>85.5854740011665,27.9782185949993 85.5858724676393,27.9782185949993 85.5861241306748,27.9781976230797 85.5862080183533,27.9782395669189 85.5863128779514,27.9784073422759 85.5863757937102,27.9785751176328 85.5864387094691,27.9787219210702 85.5865855129065,27.9788058087487 85.5867323163438,27.9789316402664 85.5867113444242,27.9789735841056 85.5864177375495,27.979120387543 85.5860612149159,27.9792042752215 85.5858934395589,27.9795607978551 85.5857046922824,27.9797076012924 85.5857046922824,27.9799382924082 85.5858095518805,27.9800431520063 85.5861870464337,27.9801270396848 85.5864806533084,27.9802109273633 85.5865855129065,27.9803577308007 85.5867532882634,27.9805255061576 85.5871517547362,27.9806513376754 85.5873824458521,27.980840084952 85.5879277157622,27.9809868883893 85.5883261822351,27.9809868883893 85.5883890979939,27.9808610568716 85.5887246487079,27.9807142534342 85.5890601994218,27.9805674499969 85.5892489466984,27.9803996746399 85.5891440871003,27.9802318992829 85.589102143261,27.9801270396848 85.5896264412516,27.9798334328101 85.5898990762067,27.9797495451316 85.5901087954029,27.9798334328101 85.5905282337953,27.9798334328101 85.5908637845093,27.9797076012924 85.5912832229017,27.9794349663373 85.5915348859371,27.9793091348196 85.5919123804903,27.9792462190607 85.5921850154454,27.9790364998645 85.5920801558473,27.978952612186 85.5918075208922,27.9788058087487 85.5916607174549,27.9787009491506 85.5911783633036,27.9785331737936 85.5908637845093,27.978512201874 85.590654065313,27.9784073422759 85.5904653180364,27.9783234545974 85.5900039358048,27.9783024826778 85.5896474131712,27.9782395669189 85.5895215816535,27.9779879038834 85.5893957501357,27.9777991566068 85.5892279747788,27.9776733250891 85.5889343679041,27.9774636058929 85.5887875644667,27.9773168024556 85.5887875644667,27.9770861113397 85.5889553398237,27.9768973640631 85.5892489466984,27.9765618133492 85.5893118624573,27.9764569537511 85.5892908905376,27.9762262626352 85.5890601994218,27.9761004311175 85.5886197891097,27.9760584872783 85.5884100699135,27.9761423749567 85.5881374349585,27.9762052907156 85.5877809123249,27.9764359818314 85.5874243896913,27.9764569537511 85.5868791197812,27.9764988975903 85.5865855129065,27.9766037571884 85.586166074514,27.9767505606258 85.5857885799608,27.9766666729473 85.5856417765235,27.9763940379922 85.5852852538899,27.9763101503137 85.5851803942918,27.9764150099118 85.584949703176,27.9764779256707 85.5848238716583,27.9768344483043 85.5848867874171,27.9769812517416 85.5848028997386,27.9772119428574 85.5845931805424,27.9772748586163 85.58417374215,27.9772538866967 85.5841108263911,27.9774636058929 85.5844044332658,27.9776104093303 85.5846560963013,27.977736240848 85.5848867874171,27.9778620723657 85.5850545627741,27.9780088758031 85.5852433100507,27.9781137354012 85.5854740011665,27.9782185949993</coordinates></LinearRing></outerBoundaryIs></Polygon></MultiGeometry>
  </Placemark>
  <Placemark>
	<Style><LineStyle><color>ff0000ff</color></LineStyle><PolyStyle><fill>0</fill></PolyStyle></Style>
      <MultiGeometry><Polygon><outerBoundaryIs><LinearRing><coordinates>85.5964213432089,27.9726190924603 85.5961067644146,27.9724513171034 85.595750241781,27.9725771486211 85.5954356629867,27.9727868678173 85.5951001122728,27.9728917274154 85.5948903930766,27.9728707554958 85.5944709546841,27.9728497835762 85.5941354039702,27.9726610362996 85.5936740217385,27.97264006438 85.5931706956676,27.9726820082192 85.5929400045518,27.9729336712547 85.5928351449537,27.9733111658078 85.5924157065612,27.9736467165218 85.5920591839277,27.9738144918788 85.591765577053,27.9740451829946 85.5917865489726,27.9744855933066 85.5919123804903,27.9748211440206 85.5916816893745,27.975240582413 85.5916607174549,27.9754503016092 85.5916607174549,27.9757019646447 85.5914509982587,27.9761633468764 85.5919752962492,27.9764988975903 85.5922898750435,27.9765827852688 85.5926463976771,27.9769183359827 85.5930029203106,27.9772538866967 85.5932965271853,27.9773377743752 85.593757909417,27.9773377743752 85.5939466566936,27.9775894374106 85.5942192916487,27.9777781846872 85.5948903930766,27.9778411004461 85.5953517753082,27.9776523531695 85.5956034383437,27.9773797182144 85.5960438486558,27.9770231955809 85.5960648205754,27.9764779256707 85.5961277363342,27.9760375153586 85.5965471747267,27.9756600208055 85.5970714727172,27.9755551612073 85.5973231357527,27.9754293296896 85.5975538268685,27.9751776666542 85.5975747987881,27.9749889193776 85.5972392480742,27.9748421159402 85.5969875850387,27.9746953125029 85.5967988377621,27.974464621387 85.5967568939229,27.974191986432 85.5967988377621,27.9738354637984 85.5967988377621,27.9734999130844 85.5968827254406,27.9732272781294 85.596861753521,27.9731433904509 85.5964213432089,27.9726190924603</coordinates></LinearRing></outerBoundaryIs></Polygon></MultiGeometry>
  </Placemark>
  <Placemark>
	<Style><LineStyle><color>ff0000ff</color></LineStyle><PolyStyle><fill>0</fill></PolyStyle></Style>
      <MultiGeometry><Polygon><outerBoundaryIs><LinearRing><coordinates>85.5841842281098,27.9829897067132 85.5842786017481,27.9831574820701 85.5844883209443,27.9831469961103 85.5846560963013,27.9830631084318 85.5847399839798,27.9830106786328 85.5849392172162,27.9829267909543 85.5850755346937,27.982779987517 85.585169908332,27.9827275577179 85.5854425432871,27.9827170717581 85.5857046922823,27.9827275577179 85.5859039255188,27.9828009594366 85.5861241306748,27.9829267909543 85.5863653077504,27.9828638751954 85.5865750269466,27.9827065857983 85.5866379427055,27.9825492964011 85.5865959988663,27.9822871474058 85.5863967656299,27.9822452035666 85.5860926727953,27.9820879141694 85.5859773272374,27.9818257651742 85.5858829535991,27.9817209055761 85.5858095518805,27.9815321582995 85.5858410097599,27.9813329250631 85.5858305238001,27.9812280654649 85.5856837203627,27.9810707760678 85.5854530292469,27.9810183462687 85.5852433100507,27.9808191130323 85.584949703176,27.9807037674744 85.5846456103415,27.9806093938361 85.5844463771051,27.9806198797959 85.5842156859892,27.9806827955548 85.5839954808332,27.9807037674744 85.5835970143604,27.9807876551529 85.5834711828427,27.9809344585903 85.5831041742493,27.9810078603089 85.582842025254,27.9811022339472 85.5826532779774,27.9812175795051 85.5825589043391,27.9814797285004 85.5826113341382,27.9817943072947 85.582842025254,27.9819620826517 85.5830517444502,27.9820459703302 85.5832404917268,27.9821927737676 85.5833558372847,27.9823500631647 85.5834397249632,27.9825283244815 85.5835970143604,27.9826856138787 85.5837647897174,27.9827590155973 85.5838696493155,27.9829058190347 85.5840479106323,27.983000192673 85.5841842281098,27.9829897067132</coordinates></LinearRing></outerBoundaryIs></Polygon></MultiGeometry>
  </Placemark>
  <Placemark>
	<Style><LineStyle><color>ff0000ff</color></LineStyle><PolyStyle><fill>0</fill></PolyStyle></Style>
      <MultiGeometry><Polygon><outerBoundaryIs><LinearRing><coordinates>85.5887875644667,27.9841746201718 85.5888085363863,27.9840592746139 85.5888190223461,27.9839019852167 85.5887665925471,27.9837656677392 85.5886093031499,27.983608378342 85.5885044435518,27.9835140047037 85.5882632664762,27.9834930327841 85.5880430613201,27.9835244906635 85.5878018842445,27.9834930327841 85.5876341088875,27.9834091451056 85.5874034177717,27.9834091451056 85.5870993249372,27.9833567153065 85.5868791197811,27.9832937995477 85.5865855129065,27.9833042855075 85.5864387094691,27.9833462293467 85.5862919060317,27.983388173186 85.5861241306748,27.9833986591458 85.585945869358,27.9834301170252 85.5857466361216,27.9835140047037 85.5856627484431,27.9837342098597 85.5858095518805,27.9840173307746 85.5858200378403,27.9841851061316 85.5856417765235,27.9842585078503 85.5854425432871,27.9842585078503 85.5853062258095,27.9843214236091 85.5851489364124,27.9842794797699 85.584781927819,27.9843423955287 85.5846980401405,27.9844262832072 85.5845197788237,27.984604544524 85.5844254051854,27.9847303760417 85.5844463771051,27.9849715531174 85.5845092928639,27.9851812723136 85.5845302647835,27.9853909915098 85.5841422842705,27.9856111966659 85.5840793685117,27.9856321685855 85.5840269387126,27.9858209158621 85.5842156859892,27.9861459806162 85.5846036665022,27.9861774384956 85.584781927819,27.9862927840535 85.5848553295377,27.9864081296115 85.5849601891358,27.9866493066871 85.585337683689,27.9868065960843 85.5858410097599,27.9867751382048 85.586113644715,27.9868275680039 85.5865855129065,27.9868380539637 85.5871412687764,27.9867541662852 85.587330016053,27.9867541662852 85.5877913982847,27.9865129892096 85.5879696596015,27.9861774384956 85.5880325753603,27.9859152895004 85.5880011174809,27.9857370281836 85.5880220894005,27.9855168230276 85.5881898647575,27.9853595336304 85.5883471541547,27.9851498144342 85.5883995839537,27.9848981513987 85.5884310418331,27.9847303760418 85.5884624997126,27.9845940585642 85.5885044435518,27.9844996849259 85.5887875644667,27.9841746201718</coordinates></LinearRing></outerBoundaryIs></Polygon></MultiGeometry>
  </Placemark>
  <Placemark>
	<Style><LineStyle><color>ff0000ff</color></LineStyle><PolyStyle><fill>0</fill></PolyStyle></Style>
      <MultiGeometry><Polygon><outerBoundaryIs><LinearRing><coordinates>85.5922269592847,27.9870792310394 85.5921640435258,27.9870163152805 85.591985782209,27.9867331943656 85.5917026612941,27.9866178488077 85.5915139140175,27.9866283347675 85.5914195403792,27.986712222446 85.5910839896653,27.986712222446 85.5908532985494,27.9868380539637 85.5907379529915,27.9870268012403 85.5905806635944,27.9873623519542 85.590381430358,27.9874776975122 85.5900144217646,27.9875301273112 85.589825674488,27.9875720711505 85.5894796378142,27.9878237341859 85.5893852641759,27.9880649112616 85.5894167220554,27.9884424058148 85.5892594326582,27.9886626109708 85.5894691518544,27.9889037880464 85.5896788710507,27.9889457318857 85.5898151885282,27.9891239932025 85.5902031690412,27.989312740479 85.5905701776346,27.9892288528006 85.5909791300672,27.9888618442072 85.591765577053,27.9884633777344 85.5919752962492,27.988316574297 85.5922374452445,27.9880753972214 85.5926254257575,27.9879600516635 85.5928980607125,27.9876874167084 85.5928351449537,27.9874252677131 85.5926254257575,27.9872260344767 85.5924471644407,27.9871736046777 85.5922269592847,27.9870792310394</coordinates></LinearRing></outerBoundaryIs></Polygon></MultiGeometry>
  </Placemark>
  <Placemark>
	<Style><LineStyle><color>ff0000ff</color></LineStyle><PolyStyle><fill>0</fill></PolyStyle></Style>
      <MultiGeometry><Polygon><outerBoundaryIs><LinearRing><coordinates>85.5267898689333,28.1398963041575 85.526805408671,28.1397941858812 85.5267965288209,28.1397453467056 85.5267965288209,28.1396987274926 85.5268076286335,28.1396476683544 85.5268031887084,28.1396143689165 85.526809848596,28.1395855094037 85.5268187284461,28.1395388901906 85.5267809890832,28.1394745112773 85.5266944105446,28.1394500916895 85.5266366915189,28.1394878310525 85.5265922922683,28.1395078107152 85.5265123736174,28.1395144706028 85.5264280150413,28.1395522099658 85.5263858357533,28.1395788495161 85.5263503163529,28.1395921692912 85.5263103570274,28.1396188088416 85.5262859374396,28.1396476683544 85.5262237784888,28.1396698679797 85.5261949189759,28.1397253670429 85.5262060187886,28.1397830860686 85.5262393182265,28.139818605469 85.5262681777394,28.1398541248695 85.5263036971398,28.1398674446446 85.5263436564653,28.139894084195 85.5264146952662,28.139936263483 85.5264768542169,28.1399185037828 85.5265390131677,28.1399162838202 85.5266122719311,28.1399429233706 85.5266633310692,28.1399518032207 85.5267166101699,28.1399518032207 85.5267898689333,28.1398963041575</coordinates></LinearRing></outerBoundaryIs></Polygon></MultiGeometry>
  </Placemark>
</Folder>
</Document></kml>
